{
    "links": {
        "self": "http://www.neowsapp.com/rest/v1/neo/3837741?api_key=iIulBulltgU6a56xZRHN4H3l9WmuAYTsLGpBGhQ2"
    },
    "id": "3837741",
    "neo_reference_id": "3837741",
    "name": "(2019 AN7)",
    "designation": "2019 AN7",
    "nasa_jpl_url": "http://ssd.jpl.nasa.gov/sbdb.cgi?sstr=3837741",
    "absolute_magnitude_h": 21.6,
    "estimated_diameter": {
        "kilometers": {
            "estimated_diameter_min": 0.1272198785,
            "estimated_diameter_max": 0.2844722965
        },
        "meters": {
            "estimated_diameter_min": 127.2198785394,
            "estimated_diameter_max": 284.4722965033
        },
        "miles": {
            "estimated_diameter_min": 0.0790507431,
            "estimated_diameter_max": 0.1767628354
        },
        "feet": {
            "estimated_diameter_min": 417.3880663071,
            "estimated_diameter_max": 933.3080892598
        }
    },
    "is_potentially_hazardous_asteroid": true,
    "close_approach_data": [
        {
            "close_approach_date": "2019-01-16",
            "close_approach_date_full": "2019-Jan-16 02:49",
            "epoch_date_close_approach": 1547606940000,
            "relative_velocity": {
                "kilometers_per_second": "34.8370461884",
                "kilometers_per_hour": "125413.3662780614",
                "miles_per_hour": "77926.988618721"
            },
            "miss_distance": {
                "astronomical": "0.1051044984",
                "lunar": "40.8856498776",
                "kilometers": "15723409.088058408",
                "miles": "9770073.3629977104"
            },
            "orbiting_body": "Earth"
        }
    ],
    "orbital_data": {
        "orbit_id": "4",
        "orbit_determination_date": "2020-09-02 06:32:04",
        "first_observation_date": "2019-01-05",
        "last_observation_date": "2019-01-12",
        "data_arc_in_days": 7,
        "observations_used": 32,
        "orbit_uncertainty": "9",
        "minimum_orbit_intersection": ".0299274",
        "jupiter_tisserand_invariant": "4.812",
        "epoch_osculation": "2458492.5",
        "eccentricity": ".8492926751025459",
        "semi_major_axis": "1.19646435288122",
        "inclination": "23.85336759709655",
        "ascending_node_longitude": "295.4868141113568",
        "orbital_period": "478.0222070530308",
        "perihelion_distance": ".1803159419578922",
        "perihelion_argument": "325.5557801517516",
        "aphelion_distance": "2.212612763804548",
        "perihelion_time": "2458537.679237241367",
        "mean_anomaly": "325.9753769450134",
        "mean_motion": ".7531030874472791",
        "equinox": "J2000",
        "orbit_class": {
            "orbit_class_type": "APO",
            "orbit_class_description": "Near-Earth asteroid orbits which cross the Earth’s orbit similar to that of 1862 Apollo",
            "orbit_class_range": "a (semi-major axis) > 1.0 AU; q (perihelion) < 1.017 AU"
        }
    },
    "is_sentry_object": false
}